[{"OBJECT_NAME":"STARLINK-2041","OBJECT_ID":"2021-012AP","EPOCH":"2024-01-22T05:59:24.366912","MEAN_MOTION":15.06389383,"ECCENTRICITY":0.0001328,"INCLINATION":53.0554,"RA_OF_ASC_NODE":321.6835,"ARG_OF_PERICENTER":86.7217,"MEAN_ANOMALY":273.3924,"EPHEMERIS_TYPE":0,"CLASSIFICATION_TYPE":"U","NORAD_CAT_ID":47657,"ELEMENT_SET_NO":999,"REV_AT_EPOCH":16280,"BSTAR":0.0015451,"MEAN_MOTION_DOT":0.00022801,"MEAN_MOTION_DDOT":0},{"OBJECT_NAME":"STARLINK-2042","OBJECT_ID":"2021-012AQ","EPOCH":"2024-01-22T01:02:10.778784","MEAN_MOTION":15.06418554,"ECCENTRICITY":0.0001341,"INCLINATION":53.0549,"RA_OF_ASC_NODE":322.6135,"ARG_OF_PERICENTER":84.7332,"MEAN_ANOMALY":275.381,"EPHEMERIS_TYPE":0,"CLASSIFICATION_TYPE":"U","NORAD_CAT_ID":47658,"ELEMENT_SET_NO":999,"REV_AT_EPOCH":16279,"BSTAR":0.0016718,"MEAN_MOTION_DOT":0.0002472,"MEAN_MOTION_DDOT":0},{"OBJECT_NAME":"STARLINK-2043","OBJECT_ID":"2021-012AR","EPOCH":"2024-01-21T22:28:14.732832","MEAN_MOTION":15.06395552,"ECCENTRICITY":0.0001275,"INCLINATION":53.0537,"RA_OF_ASC_NODE":203.0895,"ARG_OF_PERICENTER":88.0931,"MEAN_ANOMALY":272.0204,"EPHEMERIS_TYPE":0,"CLASSIFICATION_TYPE":"U","NORAD_CAT_ID":47659,"ELEMENT_SET_NO":999,"REV_AT_EPOCH":16391,"BSTAR":-3.0614e-5,"MEAN_MOTION_DOT":-7.37e-6,"MEAN_MOTION_DDOT":0},{"OBJECT_NAME":"STARLINK-2044","OBJECT_ID":"2021-012AS","EPOCH":"2024-01-22T11:40:32.672064","MEAN_MOTION":15.06414065,"ECCENTRICITY":0.0001299,"INCLINATION":53.0533,"RA_OF_ASC_NODE":191.2464,"ARG_OF_PERICENTER":92.3775,"MEAN_ANOMALY":267.7363,"EPHEMERIS_TYPE":0,"CLASSIFICATION_TYPE":"U","NORAD_CAT_ID":47660,"ELEMENT_SET_NO":999,"REV_AT_EPOCH":16413,"BSTAR":8.6079e-5,"MEAN_MOTION_DOT":1.001e-5,"MEAN_MOTION_DDOT":0},{"OBJECT_NAME":"STARLINK-2051","OBJECT_ID":"2021-012AT","EPOCH":"2024-01-22T03:22:50.890656","MEAN_MOTION":15.06415994,"ECCENTRICITY":0.0001244,"INCLINATION":53.055,"RA_OF_ASC_NODE":302.1671,"ARG_OF_PERICENTER":77.4786,"MEAN_ANOMALY":282.6342,"EPHEMERIS_TYPE":0,"CLASSIFICATION_TYPE":"U","NORAD_CAT_ID":47661,"ELEMENT_SET_NO":999,"REV_AT_EPOCH":16305,"BSTAR":0.0013723,"MEAN_MOTION_DOT":0.00020227,"MEAN_MOTION_DDOT":0},{"OBJECT_NAME":"STARLINK-2052","OBJECT_ID":"2021-012AU","EPOCH":"2024-01-22T01:19:23.591424","MEAN_MOTION":15.06410032,"ECCENTRICITY":0.0001574,"INCLINATION":53.0538,"RA_OF_ASC_NODE":302.5527,"ARG_OF_PERICENTER":105.5323,"MEAN_ANOMALY":254.584,"EPHEMERIS_TYPE":0,"CLASSIFICATION_TYPE":"U","NORAD_CAT_ID":47662,"ELEMENT_SET_NO":999,"REV_AT_EPOCH":16306,"BSTAR":0.0015444,"MEAN_MOTION_DOT":0.00022803,"MEAN_MOTION_DDOT":0},{"OBJECT_NAME":"STARLINK-2053","OBJECT_ID":"2021-012AV","EPOCH":"2024-01-22T18:46:25.644000","MEAN_MOTION":15.06405015,"ECCENTRICITY":0.0001412,"INCLINATION":53.0538,"RA_OF_ASC_NODE":219.6088,"ARG_OF_PERICENTER":96.742,"MEAN_ANOMALY":263.3729,"EPHEMERIS_TYPE":0,"CLASSIFICATION_TYPE":"U","NORAD_CAT_ID":47663,"ELEMENT_SET_NO":999,"REV_AT_EPOCH":16376,"BSTAR":9.1337e-5,"MEAN_MOTION_DOT":1.079e-5,"MEAN_MOTION_DDOT":0},{"OBJECT_NAME":"STARLINK-2054","OBJECT_ID":"2021-012AW","EPOCH":"2024-01-21T23:45:14.024160","MEAN_MOTION":15.06406599,"ECCENTRICITY":0.0001379,"INCLINATION":53.0548,"RA_OF_ASC_NODE":302.8448,"ARG_OF_PERICENTER":77.899,"MEAN_ANOMALY":282.2154,"EPHEMERIS_TYPE":0,"CLASSIFICATION_TYPE":"U","NORAD_CAT_ID":47664,"ELEMENT_SET_NO":999,"REV_AT_EPOCH":16305,"BSTAR":0.0011964,"MEAN_MOTION_DOT":0.00017587,"MEAN_MOTION_DDOT":0},{"OBJECT_NAME":"STARLINK-2056","OBJECT_ID":"2021-012AX","EPOCH":"2024-01-22T00:52:14.619648","MEAN_MOTION":15.06422512,"ECCENTRICITY":0.0001573,"INCLINATION":53.0554,"RA_OF_ASC_NODE":297.6911,"ARG_OF_PERICENTER":83.6873,"MEAN_ANOMALY":276.4295,"EPHEMERIS_TYPE":0,"CLASSIFICATION_TYPE":"U","NORAD_CAT_ID":47665,"ELEMENT_SET_NO":999,"REV_AT_EPOCH":16312,"BSTAR":0.001039,"MEAN_MOTION_DOT":0.00015238,"MEAN_MOTION_DDOT":0},{"OBJECT_NAME":"STARLINK-2057","OBJECT_ID":"2021-012AY","EPOCH":"2024-01-22T00:46:59.306304","MEAN_MOTION":15.06422689,"ECCENTRICITY":0.0001513,"INCLINATION":53.0551,"RA_OF_ASC_NODE":298.0147,"ARG_OF_PERICENTER":87.5561,"MEAN_ANOMALY":272.5601,"EPHEMERIS_TYPE":0,"CLASSIFICATION_TYPE":"U","NORAD_CAT_ID":47666,"ELEMENT_SET_NO":999,"REV_AT_EPOCH":16260,"BSTAR":0.0011474,"MEAN_MOTION_DOT":0.00016861,"MEAN_MOTION_DDOT":0},{"OBJECT_NAME":"STARLINK-2058","OBJECT_ID":"2021-012AZ","EPOCH":"2024-01-22T05:16:56.378208","MEAN_MOTION":15.06436798,"ECCENTRICITY":0.0001428,"INCLINATION":53.0547,"RA_OF_ASC_NODE":321.8157,"ARG_OF_PERICENTER":93.5752,"MEAN_ANOMALY":266.54,"EPHEMERIS_TYPE":0,"CLASSIFICATION_TYPE":"U","NORAD_CAT_ID":47667,"ELEMENT_SET_NO":999,"REV_AT_EPOCH":16278,"BSTAR":0.0013447,"MEAN_MOTION_DOT":0.00019824,"MEAN_MOTION_DDOT":0},{"OBJECT_NAME":"STARLINK-2059","OBJECT_ID":"2021-012BA","EPOCH":"2024-01-22T01:31:21.914976","MEAN_MOTION":15.06412608,"ECCENTRICITY":0.0001527,"INCLINATION":53.0556,"RA_OF_ASC_NODE":302.5189,"ARG_OF_PERICENTER":84.5382,"MEAN_ANOMALY":275.5781,"EPHEMERIS_TYPE":0,"CLASSIFICATION_TYPE":"U","NORAD_CAT_ID":47668,"ELEMENT_SET_NO":999,"REV_AT_EPOCH":16306,"BSTAR":9.2384e-5,"MEAN_MOTION_DOT":1.095e-5,"MEAN_MOTION_DDOT":0},{"OBJECT_NAME":"STARLINK-2062","OBJECT_ID":"2021-012BC","EPOCH":"2024-01-21T22:41:32.125344","MEAN_MOTION":15.06409943,"ECCENTRICITY":0.0001352,"INCLINATION":53.0545,"RA_OF_ASC_NODE":303.0467,"ARG_OF_PERICENTER":88.3708,"MEAN_ANOMALY":271.7435,"EPHEMERIS_TYPE":0,"CLASSIFICATION_TYPE":"U","NORAD_CAT_ID":47670,"ELEMENT_SET_NO":999,"REV_AT_EPOCH":16303,"BSTAR":0.0014481,"MEAN_MOTION_DOT":0.00021359,"MEAN_MOTION_DDOT":0},{"OBJECT_NAME":"STARLINK-2064","OBJECT_ID":"2021-012BD","EPOCH":"2024-01-22T01:26:04.571232","MEAN_MOTION":15.0640873,"ECCENTRICITY":0.0001543,"INCLINATION":53.0559,"RA_OF_ASC_NODE":302.535,"ARG_OF_PERICENTER":93.7253,"MEAN_ANOMALY":266.3912,"EPHEMERIS_TYPE":0,"CLASSIFICATION_TYPE":"U","NORAD_CAT_ID":47671,"ELEMENT_SET_NO":999,"REV_AT_EPOCH":16306,"BSTAR":0.0013751,"MEAN_MOTION_DOT":0.00020265,"MEAN_MOTION_DDOT":0},{"OBJECT_NAME":"STARLINK-2065","OBJECT_ID":"2021-012BE","EPOCH":"2024-01-22T03:28:04.208160","MEAN_MOTION":15.06420143,"ECCENTRICITY":0.0001636,"INCLINATION":53.0541,"RA_OF_ASC_NODE":291.8763,"ARG_OF_PERICENTER":80.8679,"MEAN_ANOMALY":279.2495,"EPHEMERIS_TYPE":0,"CLASSIFICATION_TYPE":"U","NORAD_CAT_ID":47672,"ELEMENT_SET_NO":999,"REV_AT_EPOCH":16319,"BSTAR":0.0011906,"MEAN_MOTION_DOT":0.00017506,"MEAN_MOTION_DDOT":0},{"OBJECT_NAME":"STARLINK-2066","OBJECT_ID":"2021-012BF","EPOCH":"2024-01-22T01:57:55.589760","MEAN_MOTION":15.06411279,"ECCENTRICITY":0.0001401,"INCLINATION":53.0541,"RA_OF_ASC_NODE":302.4352,"ARG_OF_PERICENTER":88.4805,"MEAN_ANOMALY":271.6345,"EPHEMERIS_TYPE":0,"CLASSIFICATION_TYPE":"U","NORAD_CAT_ID":47673,"ELEMENT_SET_NO":999,"REV_AT_EPOCH":16305,"BSTAR":0.0013548,"MEAN_MOTION_DOT":0.00019962,"MEAN_MOTION_DDOT":0},{"OBJECT_NAME":"STARLINK-2067","OBJECT_ID":"2021-012BG","EPOCH":"2024-01-22T02:17:47.679072","MEAN_MOTION":15.06413259,"ECCENTRICITY":0.0001253,"INCLINATION":53.0544,"RA_OF_ASC_NODE":302.3643,"ARG_OF_PERICENTER":77.3993,"MEAN_ANOMALY":282.7136,"EPHEMERIS_TYPE":0,"CLASSIFICATION_TYPE":"U","NORAD_CAT_ID":47674,"ELEMENT_SET_NO":999,"REV_AT_EPOCH":16306,"BSTAR":0.0014471,"MEAN_MOTION_DOT":0.00021346,"MEAN_MOTION_DDOT":0},{"OBJECT_NAME":"STARLINK-2078","OBJECT_ID":"2021-012BH","EPOCH":"2024-01-22T02:08:32.544384","MEAN_MOTION":15.06410952,"ECCENTRICITY":0.0001395,"INCLINATION":53.0544,"RA_OF_ASC_NODE":302.4038,"ARG_OF_PERICENTER":77.4814,"MEAN_ANOMALY":282.6331,"EPHEMERIS_TYPE":0,"CLASSIFICATION_TYPE":"U","NORAD_CAT_ID":47675,"ELEMENT_SET_NO":999,"REV_AT_EPOCH":16254,"BSTAR":0.001439,"MEAN_MOTION_DOT":0.00021224,"MEAN_MOTION_DDOT":0},{"OBJECT_NAME":"STARLINK-2083","OBJECT_ID":"2021-012BJ","EPOCH":"2024-01-22T16:21:44.317152","MEAN_MOTION":15.06394226,"ECCENTRICITY":0.0001046,"INCLINATION":53.0542,"RA_OF_ASC_NODE":189.7443,"ARG_OF_PERICENTER":96.6668,"MEAN_ANOMALY":263.444,"EPHEMERIS_TYPE":0,"CLASSIFICATION_TYPE":"U","NORAD_CAT_ID":47676,"ELEMENT_SET_NO":999,"REV_AT_EPOCH":16417,"BSTAR":0.00026991,"MEAN_MOTION_DOT":3.741e-5,"MEAN_MOTION_DDOT":0},{"OBJECT_NAME":"STARLINK-2090","OBJECT_ID":"2021-012BK","EPOCH":"2024-01-22T04:59:39.215328","MEAN_MOTION":15.06433775,"ECCENTRICITY":0.000145,"INCLINATION":53.0553,"RA_OF_ASC_NODE":321.8579,"ARG_OF_PERICENTER":94.8084,"MEAN_ANOMALY":265.307,"EPHEMERIS_TYPE":0,"CLASSIFICATION_TYPE":"U","NORAD_CAT_ID":47677,"ELEMENT_SET_NO":999,"REV_AT_EPOCH":16279,"BSTAR":0.0011867,"MEAN_MOTION_DOT":0.00017455,"MEAN_MOTION_DDOT":0},{"OBJECT_NAME":"STARLINK-2095","OBJECT_ID":"2021-012BM","EPOCH":"2024-01-22T02:31:02.474400","MEAN_MOTION":15.06398977,"ECCENTRICITY":0.0001393,"INCLINATION":53.0574,"RA_OF_ASC_NODE":322.3271,"ARG_OF_PERICENTER":103.2061,"MEAN_ANOMALY":256.9084,"EPHEMERIS_TYPE":0,"CLASSIFICATION_TYPE":"U","NORAD_CAT_ID":47679,"ELEMENT_SET_NO":999,"REV_AT_EPOCH":16279,"BSTAR":-4.7716e-5,"MEAN_MOTION_DOT":-9.92e-6,"MEAN_MOTION_DDOT":0},{"OBJECT_NAME":"FLOCK 4S-46","OBJECT_ID":"2021-006EK","EPOCH":"2024-01-22T02:44:50.579520","MEAN_MOTION":15.39219043,"ECCENTRICITY":0.0006073,"INCLINATION":97.3627,"RA_OF_ASC_NODE":85.8899,"ARG_OF_PERICENTER":48.9983,"MEAN_ANOMALY":311.1787,"EPHEMERIS_TYPE":0,"CLASSIFICATION_TYPE":"U","NORAD_CAT_ID":47684,"ELEMENT_SET_NO":999,"REV_AT_EPOCH":16629,"BSTAR":0.00096784,"MEAN_MOTION_DOT":0.00037716,"MEAN_MOTION_DDOT":0},{"OBJECT_NAME":"FLOCK 4S-47","OBJECT_ID":"2021-006EL","EPOCH":"2024-01-22T04:02:19.010112","MEAN_MOTION":15.38907248,"ECCENTRICITY":0.0005543,"INCLINATION":97.3547,"RA_OF_ASC_NODE":85.118,"ARG_OF_PERICENTER":34.8542,"MEAN_ANOMALY":325.3066,"EPHEMERIS_TYPE":0,"CLASSIFICATION_TYPE":"U","NORAD_CAT_ID":47685,"ELEMENT_SET_NO":999,"REV_AT_EPOCH":16724,"BSTAR":0.00078599,"MEAN_MOTION_DOT":0.00030272,"MEAN_MOTION_DDOT":0}]
